ONEWEB-0311             
1 49097U 21075Y   25329.13121769 -.00000003  00000+0 -39876-4 0  9996
2 49097  87.9129  46.4296 0001542 110.2066 249.9231 13.17650544206752
ONEWEB-0312             
1 49098U 21075Z   25329.14640980 -.00001784  00000+0 -46289-2 0  9990
2 49098  87.9128  46.4539 0001594 103.3910 256.7399 13.17657468206731
ONEWEB-0313             
1 49099U 21075AA  25328.77167867  .00000181  00000+0  43413-3 0  9992
2 49099  87.9126  46.5367 0001647 102.8846 257.2469 13.17650301206677
ONEWEB-0314             
1 49100U 21075AB  25329.11772198  .00000160  00000+0  37915-3 0  9990
2 49100  87.9134  46.4175 0001401  97.6723 262.4568 13.17647812206691
ONEWEB-0315             
1 49101U 21075AC  25329.12250869 -.00000281  00000+0 -81682-3 0  9994
2 49101  87.8957  31.1802 0001576 110.8623 249.2674 13.12443077208406
ONEWEB-0316             
1 49102U 21075AD  25329.12695281  .00000059  00000+0  11699-3 0  9998
2 49102  87.9200  15.9981 0001810 101.8850 258.2485 13.18684952210318
ONEWEB-0317             
1 49103U 21075AE  25329.11601697 -.00000107  00000+0 -33322-3 0  9999
2 49103  87.8963  31.1988 0002301  83.6185 276.5206 13.12442543208420
ONEWEB-0318             
1 49104U 21075AF  25329.12365075  .00000096  00000+0  21024-3 0  9999
2 49104  87.9200  15.9861 0001612 103.6162 256.5149 13.18685028210271
